{
  "generated_at": "2026-05-28T10:01:06+00:00",
  "source": "celestrak.org",
  "satellite_count": 9,
  "satellites": [
    {
      "id": "terra",
      "name": "TERRA",
      "platform": "EOS",
      "sensor": "MODIS",
      "swath_km": 2330,
      "color": "#39d0d8",
      "norad": 25994,
      "tle1": "1 25994U 99068A   26148.15807514  .00000434  00000+0  97308-4 0  9994",
      "tle2": "2 25994  97.9467 198.4973 0000999 319.6009 104.4578 14.61084528406681"
    },
    {
      "id": "aqua",
      "name": "AQUA",
      "platform": "EOS",
      "sensor": "MODIS",
      "swath_km": 2330,
      "color": "#2bb673",
      "norad": 27424,
      "tle1": "1 27424U 02022A   26148.19896653  .00000849  00000+0  17873-3 0  9992",
      "tle2": "2 27424  98.4267 117.0845 0001819  62.3545 308.4998 14.62122077280358"
    },
    {
      "id": "snpp",
      "name": "SUOMI NPP",
      "platform": "JPSS",
      "sensor": "VIIRS",
      "swath_km": 3000,
      "color": "#ff8c42",
      "norad": 37849,
      "tle1": "1 37849U 11061A   26148.18149881  .00000067  00000+0  52804-4 0  9996",
      "tle2": "2 37849  98.7949  89.1952 0002487  47.1981 312.9404 14.19512681755608"
    },
    {
      "id": "noaa20",
      "name": "NOAA 20",
      "platform": "JPSS",
      "sensor": "VIIRS",
      "swath_km": 3000,
      "color": "#ffaa00",
      "norad": 43013,
      "tle1": "1 43013U 17073A   26148.12414920  .00000045  00000+0  42125-4 0  9999",
      "tle2": "2 43013  98.7767  87.7657 0000939  37.4643 322.6599 14.19507495441623"
    },
    {
      "id": "noaa21",
      "name": "NOAA 21",
      "platform": "JPSS",
      "sensor": "VIIRS",
      "swath_km": 3000,
      "color": "#ff5a3a",
      "norad": 54234,
      "tle1": "1 54234U 22150A   26148.15778338  .00000062  00000+0  50139-4 0  9990",
      "tle2": "2 54234  98.7056  87.2839 0000560 226.9885 133.1244 14.19561302183702"
    },
    {
      "id": "sentinel2a",
      "name": "SENTINEL-2A",
      "platform": "Copernicus",
      "sensor": "MSI",
      "swath_km": 290,
      "color": "#b388ff",
      "norad": 40697,
      "tle1": "1 40697U 15028A   26148.21469738 -.00000090  00000+0 -17566-4 0  9992",
      "tle2": "2 40697  98.5688 223.3490 0001075  88.1101 272.0205 14.30816592570871"
    },
    {
      "id": "sentinel2b",
      "name": "SENTINEL-2B",
      "platform": "Copernicus",
      "sensor": "MSI",
      "swath_km": 290,
      "color": "#9d6dff",
      "norad": 42063,
      "tle1": "1 42063U 17013A   26148.20744666 -.00000095  00000+0 -19540-4 0  9991",
      "tle2": "2 42063  98.5695 223.2632 0001227  92.4453 267.6871 14.30821663481787"
    },
    {
      "id": "sentinel3a",
      "name": "SENTINEL-3A",
      "platform": "Copernicus",
      "sensor": "OLCI",
      "swath_km": 1270,
      "color": "#7a4fff",
      "norad": 41335,
      "tle1": "1 41335U 16011A   26148.15941341  .00000103  00000+0  60692-4 0  9994",
      "tle2": "2 41335  98.6254 215.8297 0001245 108.5584 251.5732 14.26739773535208"
    },
    {
      "id": "sentinel3b",
      "name": "SENTINEL-3B",
      "platform": "Copernicus",
      "sensor": "OLCI",
      "swath_km": 1270,
      "color": "#5e3bff",
      "norad": 43437,
      "tle1": "1 43437U 18039A   26148.20269310  .00000124  00000+0  69293-4 0  9995",
      "tle2": "2 43437  98.6252 216.0207 0001116  74.0364 286.0939 14.26735231421273"
    }
  ]
}